{"fetched_at":"2026-03-29T16:36:15Z","count":15609,"tles":[{"name":"STARLINK-5031","line1":"1 53889U 22119D   26087.84106414  .00000522  00000+0  50873-4 0  9994","line2":"2 53889  53.2164 238.2965 0001182  90.8482 269.2646 15.08841983194572","category":"Starlink"}]}