{
  "norad_id": 53889,
  "name": "STARLINK-5031",
  "history": [
    {
      "epoch": "2026-03-28T20:11:07.941696",
      "apogee_km": 540.5551588360786,
      "perigee_km": 538.9194966300292,
      "latitude_deg": -30.34779951856461,
      "longitude_deg": 9.642157439840958,
      "semi_major_axis_km": 6917.874327733053,
      "eccentricity": 0.00011822,
      "inclination_deg": 53.2164,
      "raan_deg": 238.2965,
      "arg_perigee_deg": 90.8482,
      "mean_anomaly_deg": 269.2646,
      "mean_motion_rev_day": 15.08841983
    }
  ]
}